,ADDRESS,BLK_NO,BUILDING,LATITUDE,LONGITUDE,LONGTITUDE,POSTAL,ROAD_NAME,SEARCHVAL,X,Y,address
0,30 BUKIT BATOK WEST AVENUE 3 PRINCESS ELIZABETH PRIMARY SCHOOL SINGAPORE 659163,30,PRINCESS ELIZABETH PRIMARY SCHOOL,1.349194518,103.7409996,103.7409996,659163,BUKIT BATOK WEST AVENUE 3,PRINCESS ELIZABETH PRIMARY SCHOOL,17725.92669,36812.78583,Princess Elizabeth Primary School
0,2 WOODLANDS DRIVE 14 WOODGROVE PRIMARY SCHOOL SINGAPORE 738079,2,WOODGROVE PRIMARY SCHOOL,1.43305806,103.7903896,103.7903896,738079,WOODLANDS DRIVE 14,WOODGROVE PRIMARY SCHOOL,23222.65449,46085.84108,Woodgrove Primary School
0,51 CORONATION ROAD NANYANG PRIMARY SCHOOL SINGAPORE 269460,51,NANYANG PRIMARY SCHOOL,1.32111549,103.8064681,103.8064681,269460,CORONATION ROAD,NANYANG PRIMARY SCHOOL,25011.802969999997,33707.771960000005,Nanyang Primary School
1,52 KING'S ROAD NANYANG PRIMARY SCHOOL SINGAPORE 268097,52,NANYANG PRIMARY SCHOOL,1.321246289,103.8077947,103.8077947,268097,KING'S ROAD,NANYANG PRIMARY SCHOOL,25159.44468,33722.23349,Nanyang Primary School
0,70 PUNGGOL DRIVE WATERWAY PRIMARY SCHOOL SINGAPORE 828802,70,WATERWAY PRIMARY SCHOOL,1.39915421,103.9186708,103.9186708,828802,PUNGGOL DRIVE,WATERWAY PRIMARY SCHOOL,37498.55149,42337.05229,Waterway Primary School
0,2A PRINCE CHARLES CRESCENT ALEXANDRA PRIMARY SCHOOL SINGAPORE 159016,2A,ALEXANDRA PRIMARY SCHOOL,1.291299035,103.82394079999999,103.82394079999999,159016,PRINCE CHARLES CRESCENT,ALEXANDRA PRIMARY SCHOOL,26956.33302,30410.80762,Alexandra Primary School
0,80 BARTLEY ROAD MARIS STELLA HIGH SCHOOL SINGAPORE 539786,80,MARIS STELLA HIGH SCHOOL,1.3421839569999998,103.8780964,103.8780964,539786,BARTLEY ROAD,MARIS STELLA HIGH SCHOOL,32983.2917,36037.44455,Maris Stella High School
1,25 MOUNT VERNON ROAD MARIS STELLA HIGH SCHOOL SINGAPORE 368051,25,MARIS STELLA HIGH SCHOOL,1.3413025140000001,103.8778141,103.8778141,368051,MOUNT VERNON ROAD,MARIS STELLA HIGH SCHOOL,32951.86778,35939.978489999994,Maris Stella High School
0,18 BUKIT BATOK STREET 21 BUKIT VIEW PRIMARY SCHOOL SINGAPORE 659634,18,BUKIT VIEW PRIMARY SCHOOL,1.3459452459999999,103.75358879999999,103.75358879999999,659634,BUKIT BATOK STREET 21,BUKIT VIEW PRIMARY SCHOOL,19126.95611,36453.448110000005,Bukit View Primary School
0,11 WOODLANDS RING ROAD WOODLANDS RING PRIMARY SCHOOL SINGAPORE 738240,11,WOODLANDS RING PRIMARY SCHOOL,1.434769705,103.7978411,103.7978411,738240,WOODLANDS RING ROAD,WOODLANDS RING PRIMARY SCHOOL,24051.89781,46275.09195,Woodlands Ring Primary School
0,2 BUKIT BATOK STREET 52 LIANHUA PRIMARY SCHOOL SINGAPORE 659243,2,LIANHUA PRIMARY SCHOOL,1.3541550690000002,103.7542104,103.7542104,659243,BUKIT BATOK STREET 52,LIANHUA PRIMARY SCHOOL,19196.15516,37361.24699,Lianhua Primary School
0,2 YISHUN STREET 71 JIEMIN PRIMARY SCHOOL SINGAPORE 768515,2,JIEMIN PRIMARY SCHOOL,1.4276468519999999,103.8304804,103.8304804,768515,YISHUN STREET 71,JIEMIN PRIMARY SCHOOL,27684.148419999998,45487.45227,Jiemin Primary School
0,71 ANCHORVALE LINK SPRINGDALE PRIMARY SCHOOL SINGAPORE 544799,71,SPRINGDALE PRIMARY SCHOOL,1.394958184,103.88989649999999,103.88989649999999,544799,ANCHORVALE LINK,SPRINGDALE PRIMARY SCHOOL,34296.37258,41872.979960000004,Springdale Primary School
0,8B BISHAN STREET 13 KUO CHUAN PRESBYTERIAN PRIMARY SCHOOL SINGAPORE 579802,8B,KUO CHUAN PRESBYTERIAN PRIMARY SCHOOL,1.349783074,103.8545292,103.8545292,579802,BISHAN STREET 13,KUO CHUAN PRESBYTERIAN PRIMARY SCHOOL,30360.509980000003,36877.68069,Kuo Chuan Presbyterian Primary School
1,8 BISHAN STREET 13 KUO CHUAN PRESBYTERIAN PRIMARY SCHOOL SINGAPORE 579793,8,KUO CHUAN PRESBYTERIAN PRIMARY SCHOOL,1.3493843559999998,103.8551708,103.8551708,579793,BISHAN STREET 13,KUO CHUAN PRESBYTERIAN PRIMARY SCHOOL,30431.902560000002,36833.59313,Kuo Chuan Presbyterian Primary School
0,10 YISHUN STREET 11 AHMAD IBRAHIM PRIMARY SCHOOL SINGAPORE 768643,10,AHMAD IBRAHIM PRIMARY SCHOOL,1.4336812069999998,103.8329243,103.8329243,768643,YISHUN STREET 11,AHMAD IBRAHIM PRIMARY SCHOOL,27956.12163,46154.70068,Ahmad Ibrahim Primary School
0,4 CHESTNUT DRIVE CHIJ OUR LADY QUEEN OF PEACE SINGAPORE 679287,4,CHIJ OUR LADY QUEEN OF PEACE,1.366758014,103.7676948,103.7676948,679287,CHESTNUT DRIVE,CHIJ OUR LADY QUEEN OF PEACE,20696.85944,38754.772580000004,CHIJ Our Lady Queen of Peace
0,2 FARRER PARK ROAD FARRER PARK PRIMARY SCHOOL SINGAPORE 217567,2,FARRER PARK PRIMARY SCHOOL,1.312504162,103.8509027,103.8509027,217567,FARRER PARK ROAD,FARRER PARK PRIMARY SCHOOL,29956.943560000003,32755.56622,Farrer Park Primary School
0,10 SERAYA ROAD TANJONG KATONG PRIMARY SCHOOL (U/C) SINGAPORE 437259,10,TANJONG KATONG PRIMARY SCHOOL (U/C),1.305307371,103.9005317,103.9005317,437259,SERAYA ROAD,TANJONG KATONG PRIMARY SCHOOL (U/C),35480.20182,31959.875139999996,Tanjong Katong Primary School
1,860 NEW UPPER CHANGI ROAD TANJONG KATONG PRIMARY SCHOOL (JAN 2018 - DEC 2019) SINGAPORE 467353,860,TANJONG KATONG PRIMARY SCHOOL (JAN 2018 - DEC 2019),1.3243409290000001,103.93912979999999,103.93912979999999,467353,NEW UPPER CHANGI ROAD,TANJONG KATONG PRIMARY SCHOOL (JAN 2018 - DEC 2019),39775.72747,34064.65948,Tanjong Katong Primary School
0,20 CHOA CHU KANG AVENUE 2 CHUA CHU KANG PRIMARY SCHOOL SINGAPORE 689905,20,CHUA CHU KANG PRIMARY SCHOOL,1.377743283,103.7418605,103.7418605,689905,CHOA CHU KANG AVENUE 2,CHUA CHU KANG PRIMARY SCHOOL,17821.85788,39969.56327,Chua Chu Kang Primary School
0,21 HILLCREST ROAD RAFFLES GIRLS' PRIMARY SCHOOL SINGAPORE 289072,21,RAFFLES GIRLS' PRIMARY SCHOOL,1.3300739190000002,103.8062213,103.8062213,289072,HILLCREST ROAD,RAFFLES GIRLS' PRIMARY SCHOOL,24984.35581,34698.34951,Raffles Girls' Primary School
0,1257 UPPER SERANGOON ROAD CHIJ OUR LADY OF THE NATIVITY SINGAPORE 534793,1257,CHIJ OUR LADY OF THE NATIVITY,1.373174017,103.89765940000001,103.89765940000001,534793,UPPER SERANGOON ROAD,CHIJ OUR LADY OF THE NATIVITY,35160.34412,39464.21795,CHIJ Our Lady of the Nativity
0,1 VICTORIA LANE STAMFORD PRIMARY SCHOOL SINGAPORE 198423,1,STAMFORD PRIMARY SCHOOL,1.3040910829999999,103.857393,103.857393,198423,VICTORIA LANE,STAMFORD PRIMARY SCHOOL,30679.2606,31825.297239999996,Stamford Primary School
0,15 CLEMENTI AVENUE 5 PEI TONG PRIMARY SCHOOL SINGAPORE 129857,15,PEI TONG PRIMARY SCHOOL,1.316148017,103.76757629999999,103.76757629999999,129857,CLEMENTI AVENUE 5,PEI TONG PRIMARY SCHOOL,20683.5152,33158.57465,Pei Tong Primary School
0,250 TAMPINES STREET 12 TAMPINES PRIMARY SCHOOL SINGAPORE 529426,250,TAMPINES PRIMARY SCHOOL,1.3504863980000001,103.9435731,103.9435731,529426,TAMPINES STREET 12,TAMPINES PRIMARY SCHOOL,40270.0972,36955.7186,Tampines Primary School
0,2C BURGHLEY DRIVE CHIJ OUR LADY OF GOOD COUNSEL SINGAPORE 558979,2C,CHIJ OUR LADY OF GOOD COUNSEL,1.357951427,103.8642502,103.8642502,558979,BURGHLEY DRIVE,CHIJ OUR LADY OF GOOD COUNSEL,31442.32773,37780.9072,CHIJ Our Lady of Good Counsel
0,61 SEMBAWANG DRIVE NORTHOAKS PRIMARY SCHOOL SINGAPORE 757622,61,NORTHOAKS PRIMARY SCHOOL,1.456666873,103.81361,103.81361,757622,SEMBAWANG DRIVE,NORTHOAKS PRIMARY SCHOOL,25806.75648,48696.34995,Northoaks Primary School
0,100 BRIGHT HILL DRIVE AI TONG SCHOOL SINGAPORE 579646,100,AI TONG SCHOOL,1.360736365,103.8330757,103.8330757,579646,BRIGHT HILL DRIVE,AI TONG SCHOOL,27972.965369999998,38088.82945,Ai Tong School
0,350 BEDOK NORTH AVENUE 3 RED SWASTIKA SCHOOL SINGAPORE 469719,350,RED SWASTIKA SCHOOL,1.33349383,103.93437490000001,103.93437490000001,469719,BEDOK NORTH AVENUE 3,RED SWASTIKA SCHOOL,39246.516110000004,35076.71989,Red Swastika School
0,90 BUKIT BATOK EAST AVENUE 6 KEMING PRIMARY SCHOOL SINGAPORE 659762,90,KEMING PRIMARY SCHOOL,1.3452450530000002,103.7562645,103.7562645,659762,BUKIT BATOK EAST AVENUE 6,KEMING PRIMARY SCHOOL,19424.7216,36376.01464,Keming Primary School
0,21 ADMIRALTY DRIVE CANBERRA PRIMARY SCHOOL SINGAPORE 757714,21,CANBERRA PRIMARY SCHOOL,1.4510640069999998,103.8159709,103.8159709,757714,ADMIRALTY DRIVE,CANBERRA PRIMARY SCHOOL,26069.476459999998,48076.81084,Canberra Primary School
0,110 WOODLANDS CRESCENT RIVERSIDE PRIMARY SCHOOL SINGAPORE 737803,110,RIVERSIDE PRIMARY SCHOOL,1.44710495,103.80192120000001,103.80192120000001,737803,WOODLANDS CRESCENT,RIVERSIDE PRIMARY SCHOOL,24505.96806,47639.055010000004,Riverside Primary School
0,20 PASIR RIS STREET 71 MERIDIAN PRIMARY SCHOOL SINGAPORE 518798,20,MERIDIAN PRIMARY SCHOOL,1.3759708309999998,103.9351432,103.9351432,518798,PASIR RIS STREET 71,MERIDIAN PRIMARY SCHOOL,39331.82685,39773.62088,Meridian Primary School
0,21 SERANGOON NORTH AVENUE 4 ROSYTH SCHOOL SINGAPORE 555855,21,ROSYTH SCHOOL,1.372915796,103.87469320000001,103.87469320000001,555855,SERANGOON NORTH AVENUE 4,ROSYTH SCHOOL,32604.49393,39435.608739999996,Rosyth School
0,1 CANTONMENT CLOSE CANTONMENT PRIMARY SCHOOL SINGAPORE 088256,1,CANTONMENT PRIMARY SCHOOL,1.275505441,103.8399227,103.8399227,088256,CANTONMENT CLOSE,CANTONMENT PRIMARY SCHOOL,28734.98928,28664.43264,Cantonment Primary School
0,1 JURONG WEST STREET 73 WESTWOOD PRIMARY SCHOOL SINGAPORE 649188,1,WESTWOOD PRIMARY SCHOOL,1.3471546319999999,103.7005267,103.7005267,649188,JURONG WEST STREET 73,WESTWOOD PRIMARY SCHOOL,13221.722609999999,36587.43342,Westwood Primary School
0,51 JALAN MEMBINA ZHANGDE PRIMARY SCHOOL SINGAPORE 169485,51,ZHANGDE PRIMARY SCHOOL,1.28449822,103.826149,103.826149,169485,JALAN MEMBINA,ZHANGDE PRIMARY SCHOOL,27202.0828,29658.807760000003,Zhangde Primary School
0,65 JURONG EAST STREET 13 FUHUA PRIMARY SCHOOL SINGAPORE 609647,65,FUHUA PRIMARY SCHOOL,1.336403763,103.73666949999999,103.73666949999999,609647,JURONG EAST STREET 13,FUHUA PRIMARY SCHOOL,17243.97049,35398.46628,Fuhua Primary School
0,3 CHOA CHU KANG AVENUE 4 CONCORD PRIMARY SCHOOL SINGAPORE 689814,3,CONCORD PRIMARY SCHOOL,1.380411513,103.7361428,103.7361428,689814,CHOA CHU KANG AVENUE 4,CONCORD PRIMARY SCHOOL,17185.55416,40264.62814,Concord Primary School
0,30 TOWNER ROAD HONG WEN SCHOOL SINGAPORE 327829,30,HONG WEN SCHOOL,1.321689285,103.8576518,103.8576518,327829,TOWNER ROAD,HONG WEN SCHOOL,30708.0414,33771.21641,Hong Wen School
0,3 ANG MO KIO AVENUE 10 TOWNSVILLE PRIMARY SCHOOL SINGAPORE 569730,3,TOWNSVILLE PRIMARY SCHOOL,1.3603626340000001,103.8541855,103.8541855,569730,ANG MO KIO AVENUE 10,TOWNSVILLE PRIMARY SCHOOL,30322.247160000003,38047.51425,Townsville Primary School
0,3 TAMPINES STREET 21 YUMIN PRIMARY SCHOOL SINGAPORE 529393,3,YUMIN PRIMARY SCHOOL,1.3514596030000001,103.9507161,103.9507161,529393,TAMPINES STREET 21,YUMIN PRIMARY SCHOOL,41065.03298,37063.36808,Yumin Primary School
0,11 TECK WHYE WALK TECK WHYE PRIMARY SCHOOL SINGAPORE 688261,11,TECK WHYE PRIMARY SCHOOL,1.383558303,103.75368279999999,103.75368279999999,688261,TECK WHYE WALK,TECK WHYE PRIMARY SCHOOL,19137.55117,40612.51203,Teck Whye Primary School
0,20 JURONG WEST STREET 61 FRONTIER PRIMARY SCHOOL SINGAPORE 648200,20,FRONTIER PRIMARY SCHOOL,1.3366431220000001,103.6996828,103.6996828,648200,JURONG WEST STREET 61,FRONTIER PRIMARY SCHOOL,13127.7417,35425.126410000004,Frontier Primary School
0,111 LORONG KISMIS BUKIT TIMAH PRIMARY SCHOOL SINGAPORE 598112,111,BUKIT TIMAH PRIMARY SCHOOL,1.337749867,103.76685529999999,103.76685529999999,598112,LORONG KISMIS,BUKIT TIMAH PRIMARY SCHOOL,20603.34696,35547.200130000005,Bukit Timah Primary School
0,2 RIVER VALLEY GREEN RIVER VALLEY PRIMARY SCHOOL SINGAPORE 237993,2,RIVER VALLEY PRIMARY SCHOOL,1.294183475,103.8360189,103.8360189,237993,RIVER VALLEY GREEN,RIVER VALLEY PRIMARY SCHOOL,28300.52573,30729.75238,River Valley Primary School
0,45 HOUGANG AVENUE 1 XINGHUA PRIMARY SCHOOL SINGAPORE 538882,45,XINGHUA PRIMARY SCHOOL,1.357996547,103.89021640000001,103.89021640000001,538882,HOUGANG AVENUE 1,XINGHUA PRIMARY SCHOOL,34332.06544,37785.94881,Xinghua Primary School
0,11 CHOA CHU KANG STREET 54 KRANJI PRIMARY SCHOOL SINGAPORE 689189,11,KRANJI PRIMARY SCHOOL,1.3939100309999999,103.74741540000001,103.74741540000001,689189,CHOA CHU KANG STREET 54,KRANJI PRIMARY SCHOOL,18440.11378,41757.17922,Kranji Primary School
0,31 ANCHORVALE DRIVE ANCHOR GREEN PRIMARY SCHOOL SINGAPORE 544969,31,ANCHOR GREEN PRIMARY SCHOOL,1.390662478,103.8872561,103.8872561,544969,ANCHORVALE DRIVE,ANCHOR GREEN PRIMARY SCHOOL,34002.539469999996,41397.97541,Anchor Green Primary School
0,1 BUKIT PURMEI AVENUE RADIN MAS PRIMARY SCHOOL SINGAPORE 099840,1,RADIN MAS PRIMARY SCHOOL,1.274961612,103.82418,103.82418,099840,BUKIT PURMEI AVENUE,RADIN MAS PRIMARY SCHOOL,26982.9446,28604.29972,Radin Mas Primary School
0,1 BUKIT PURMEI AVENUE RADIN MAS PRIMARY SCHOOL SINGAPORE 099840,1,RADIN MAS PRIMARY SCHOOL,1.274961612,103.82418,103.82418,099840,BUKIT PURMEI AVENUE,RADIN MAS PRIMARY SCHOOL,26982.9446,28604.29972,CHIJ (Kellock)
0,1 BUKIT PURMEI AVENUE RADIN MAS PRIMARY SCHOOL SINGAPORE 099840,1,RADIN MAS PRIMARY SCHOOL,1.274961612,103.82418,103.82418,099840,BUKIT PURMEI AVENUE,RADIN MAS PRIMARY SCHOOL,26982.9446,28604.29972,CHIJ (Katong) Primary
0,11 JELAPANG ROAD GREENRIDGE PRIMARY SCHOOL SINGAPORE 677744,11,GREENRIDGE PRIMARY SCHOOL,1.3858737540000001,103.7678146,103.7678146,677744,JELAPANG ROAD,GREENRIDGE PRIMARY SCHOOL,20710.25094,40868.49494,Greenridge Primary School
0,150 COMPASSVALE BOW PALM VIEW PRIMARY SCHOOL SINGAPORE 544822,150,PALM VIEW PRIMARY SCHOOL,1.3838407640000001,103.8912151,103.8912151,544822,COMPASSVALE BOW,PALM VIEW PRIMARY SCHOOL,34443.145789999995,40643.67495,Palm View Primary School
0,9 PUNGGOL PLACE PUNGGOL VIEW PRIMARY SCHOOL SINGAPORE 828845,9,PUNGGOL VIEW PRIMARY SCHOOL,1.4053333140000002,103.9053865,103.9053865,828845,PUNGGOL PLACE,PUNGGOL VIEW PRIMARY SCHOOL,36020.17415,43020.25725,Punggol View Primary School
0,15 YISHUN AVENUE 4 NORTHLAND PRIMARY SCHOOL SINGAPORE 769026,15,NORTHLAND PRIMARY SCHOOL,1.421304044,103.8407929,103.8407929,769026,YISHUN AVENUE 4,NORTHLAND PRIMARY SCHOOL,28831.785289999996,44786.09772,Northland Primary School
0,60 PASIR RIS DRIVE 1 PARK VIEW PRIMARY SCHOOL SINGAPORE 519524,60,PARK VIEW PRIMARY SCHOOL,1.377770261,103.9396887,103.9396887,519524,PASIR RIS DRIVE 1,PARK VIEW PRIMARY SCHOOL,39837.67607,39972.6151,Park View Primary School
0,8 YISHUN STREET 21 XISHAN PRIMARY SCHOOL SINGAPORE 768611,8,XISHAN PRIMARY SCHOOL,1.433501455,103.83828929999999,103.83828929999999,768611,YISHUN STREET 21,XISHAN PRIMARY SCHOOL,28553.16735,46134.82524,Xishan Primary School
0,60 BUKIT PANJANG RING ROAD WEST SPRING PRIMARY SCHOOL SINGAPORE 679946,60,WEST SPRING PRIMARY SCHOOL,1.389463118,103.76607729999999,103.76607729999999,679946,BUKIT PANJANG RING ROAD,WEST SPRING PRIMARY SCHOOL,20516.91679,41265.39429,West Spring Primary School
0,50 BEDOK RESERVOIR ROAD TELOK KURAU PRIMARY SCHOOL SINGAPORE 479239,50,TELOK KURAU PRIMARY SCHOOL,1.330913472,103.9113491,103.9113491,479239,BEDOK RESERVOIR ROAD,TELOK KURAU PRIMARY SCHOOL,36683.99731,34791.30364,Telok Kurau Primary School
0,20 MARYMOUNT ROAD MARYMOUNT CONVENT SCHOOL SINGAPORE 297754,20,MARYMOUNT CONVENT SCHOOL,1.340427023,103.839899,103.839899,297754,MARYMOUNT ROAD,MARYMOUNT CONVENT SCHOOL,28732.32588,35843.12718,Marymount Convent School
0,10 WOODLANDS DRIVE 50 WOODLANDS PRIMARY SCHOOL SINGAPORE 738853,10,WOODLANDS PRIMARY SCHOOL,1.436746383,103.79177170000001,103.79177170000001,738853,WOODLANDS DRIVE 50,WOODLANDS PRIMARY SCHOOL,23376.46585,46493.67452,Woodlands Primary School
0,8 JURONG WEST STREET 51 SHUQUN PRIMARY SCHOOL SINGAPORE 649332,8,SHUQUN PRIMARY SCHOOL,1.34756849,103.721558,103.721558,649332,JURONG WEST STREET 51,SHUQUN PRIMARY SCHOOL,15562.2762,36633.07842,Shuqun Primary School
0,161 CORPORATION WALK LAKESIDE PRIMARY SCHOOL SINGAPORE 618310,161,LAKESIDE PRIMARY SCHOOL,1.3383757029999999,103.7180505,103.7180505,618310,CORPORATION WALK,LAKESIDE PRIMARY SCHOOL,15171.88895,35616.60316,Lakeside Primary School
0,20 BOON LAY DRIVE BOON LAY GARDEN PRIMARY SCHOOL SINGAPORE 649930,20,BOON LAY GARDEN PRIMARY SCHOOL,1.3428467080000002,103.712969,103.712969,649930,BOON LAY DRIVE,BOON LAY GARDEN PRIMARY SCHOOL,14606.39151,36111.01221,Boon Lay Garden Primary School
0,3 TAMPINES STREET 22 ANGSANA PRIMARY SCHOOL SINGAPORE 529366,3,ANGSANA PRIMARY SCHOOL,1.348571433,103.951673,103.951673,529366,TAMPINES STREET 22,ANGSANA PRIMARY SCHOOL,41171.54153,36744.01349,Angsana Primary School
0,158 JURONG EAST STREET 24 YUHUA PRIMARY SCHOOL SINGAPORE 609558,158,YUHUA PRIMARY SCHOOL,1.3429198180000002,103.74086109999999,103.74086109999999,609558,JURONG EAST STREET 24,YUHUA PRIMARY SCHOOL,17710.48899,36118.96125,Yuhua Primary School
0,91 BENDEMEER ROAD BENDEMEER PRIMARY SCHOOL SINGAPORE 339948,91,BENDEMEER PRIMARY SCHOOL,1.322208475,103.86535129999999,103.86535129999999,339948,BENDEMEER ROAD,BENDEMEER PRIMARY SCHOOL,31564.92659,33828.63547,Bendemeer Primary School
0,210 YISHUN AVENUE 6 NORTH VIEW PRIMARY SCHOOL SINGAPORE 768960,210,NORTH VIEW PRIMARY SCHOOL,1.4279434030000002,103.84836829999999,103.84836829999999,768960,YISHUN AVENUE 6,NORTH VIEW PRIMARY SCHOOL,29674.809269999998,45520.24863,North View Primary School
0,52 SUMANG WALK PUNGGOL COVE PRIMARY SCHOOL SINGAPORE 828674,52,PUNGGOL COVE PRIMARY SCHOOL,1.411563565,103.8989704,103.8989704,828674,SUMANG WALK,PUNGGOL COVE PRIMARY SCHOOL,35306.12208,43709.14636,Punggol Cove Primary School
0,23 JURONG WEST STREET 81 PIONEER PRIMARY SCHOOL SINGAPORE 649076,23,PIONEER PRIMARY SCHOOL,1.3487209269999998,103.6948679,103.6948679,649076,JURONG WEST STREET 81,PIONEER PRIMARY SCHOOL,12591.96415,36760.66197,Pioneer Primary School
0,61 EDGEDALE PLAINS HORIZON PRIMARY SCHOOL SINGAPORE 828819,61,HORIZON PRIMARY SCHOOL,1.400008815,103.9130715,103.9130715,828819,EDGEDALE PLAINS,HORIZON PRIMARY SCHOOL,36875.42796,42431.52838,Horizon Primary School
0,50 ANCHORVALE LINK NAN CHIAU PRIMARY SCHOOL SINGAPORE 545080,50,NAN CHIAU PRIMARY SCHOOL,1.392064685,103.890925,103.890925,545080,ANCHORVALE LINK,NAN CHIAU PRIMARY SCHOOL,34410.83605,41553.03408,Nan Chiau Primary School
0,31 SENJA ROAD WEST VIEW PRIMARY SCHOOL SINGAPORE 677742,31,WEST VIEW PRIMARY SCHOOL,1.383590574,103.7602891,103.7602891,677742,SENJA ROAD,WEST VIEW PRIMARY SCHOOL,19872.748480000002,40616.05672,West View Primary School
0,170 YISHUN AVENUE 6 CHONGFU SCHOOL SINGAPORE 768959,170,CHONGFU SCHOOL,1.438462312,103.83907070000001,103.83907070000001,768959,YISHUN AVENUE 6,CHONGFU SCHOOL,28640.123669999997,46683.37203,Chongfu School
0,5 ANG MO KIO STREET 52 JING SHAN PRIMARY SCHOOL SINGAPORE 569228,5,JING SHAN PRIMARY SCHOOL,1.3718926759999999,103.85181109999999,103.85181109999999,569228,ANG MO KIO STREET 52,JING SHAN PRIMARY SCHOOL,30057.98871,39322.44541,Jing Shan Primary School
0,19 ANG MO KIO AVENUE 9 ANDERSON PRIMARY SCHOOL SINGAPORE 569785,19,ANDERSON PRIMARY SCHOOL,1.384665965,103.84123840000001,103.84123840000001,569785,ANG MO KIO AVENUE 9,ANDERSON PRIMARY SCHOOL,28881.376780000002,40734.84439,Anderson Primary School
0,11 CHOA CHU KANG STREET 52 DE LA SALLE SCHOOL SINGAPORE 689285,11,DE LA SALLE SCHOOL,1.395071916,103.74344359999999,103.74344359999999,689285,CHOA CHU KANG STREET 52,DE LA SALLE SCHOOL,17998.10965,41885.67126,De La Salle School
0,100 REDHILL CLOSE GAN ENG SENG PRIMARY SCHOOL SINGAPORE 158901,100,GAN ENG SENG PRIMARY SCHOOL,1.285955393,103.8152282,103.8152282,158901,REDHILL CLOSE,GAN ENG SENG PRIMARY SCHOOL,25986.69283,29819.94053,Gan Eng Seng Primary School
0,501 BEDOK SOUTH AVENUE 3 TEMASEK PRIMARY SCHOOL SINGAPORE 469300,501,TEMASEK PRIMARY SCHOOL,1.317716389,103.9456952,103.9456952,469300,BEDOK SOUTH AVENUE 3,TEMASEK PRIMARY SCHOOL,40506.433430000005,33332.182689999994,Temasek Primary School
0,1 SALLIM ROAD CANOSSA CATHOLIC PRIMARY SCHOOL SINGAPORE 387621,1,CANOSSA CATHOLIC PRIMARY SCHOOL,1.32651106,103.8817569,103.8817569,387621,SALLIM ROAD,CANOSSA CATHOLIC PRIMARY SCHOOL,33390.698789999995,34304.42296,Canossa Catholic Primary School
0,50 EDGEDALE PLAINS GREENDALE PRIMARY SCHOOL SINGAPORE 828848,50,GREENDALE PRIMARY SCHOOL,1.396402656,103.912566,103.912566,828848,EDGEDALE PLAINS,GREENDALE PRIMARY SCHOOL,36819.17918,42032.77521,Greendale Primary School
0,21 TAMPINES STREET 71 POI CHING SCHOOL SINGAPORE 529067,21,POI CHING SCHOOL,1.358087001,103.93535250000001,103.93535250000001,529067,TAMPINES STREET 71,POI CHING SCHOOL,39355.20329,37796.11583,Poi Ching School
0,98 PUNGGOL WALK PUNGGOL GREEN PRIMARY SCHOOL SINGAPORE 828772,98,PUNGGOL GREEN PRIMARY SCHOOL,1.4018048730000001,103.89877290000001,103.89877290000001,828772,PUNGGOL WALK,PUNGGOL GREEN PRIMARY SCHOOL,35284.17335,42630.07821,Punggol Green Primary School
0,61 WOODLANDS AVENUE 1 SI LING PRIMARY SCHOOL SINGAPORE 739067,61,SI LING PRIMARY SCHOOL,1.4326998659999999,103.78577879999999,103.78577879999999,739067,WOODLANDS AVENUE 1,SI LING PRIMARY SCHOOL,22709.53538,46046.243839999996,Si Ling Primary School
0,109 CASHEW ROAD BUKIT PANJANG PRIMARY SCHOOL SINGAPORE 679676,109,BUKIT PANJANG PRIMARY SCHOOL,1.373472192,103.7693175,103.7693175,679676,CASHEW ROAD,BUKIT PANJANG PRIMARY SCHOOL,20877.46245,39497.1878,Bukit Panjang Primary School
0,8 CLEMENTI AVENUE 3 CLEMENTI PRIMARY SCHOOL SINGAPORE 129903,8,CLEMENTI PRIMARY SCHOOL,1.315808563,103.76305479999999,103.76305479999999,129903,CLEMENTI AVENUE 3,CLEMENTI PRIMARY SCHOOL,20180.32316,33121.05322,Clementi Primary School
0,310 MARGARET DRIVE QUEENSTOWN PRIMARY SCHOOL SINGAPORE 149303,310,QUEENSTOWN PRIMARY SCHOOL,1.295988446,103.8079019,103.8079019,149303,MARGARET DRIVE,QUEENSTOWN PRIMARY SCHOOL,25171.3473,30929.35075,Queenstown Primary School
0,16 WINSTEDT ROAD ANGLO-CHINESE SCHOOL (JUNIOR) SINGAPORE 227988,16,ANGLO-CHINESE SCHOOL (JUNIOR),1.309321297,103.8406435,103.8406435,227988,WINSTEDT ROAD,ANGLO-CHINESE SCHOOL (JUNIOR),28815.19562,32403.615710000002,Anglo-Chinese School (Junior)
0,52 HOUGANG AVENUE 8 MONTFORT JUNIOR SCHOOL SINGAPORE 538786,52,MONTFORT JUNIOR SCHOOL,1.373937639,103.8896908,103.8896908,538786,HOUGANG AVENUE 8,MONTFORT JUNIOR SCHOOL,34273.53675,39548.63302,Montfort Junior School
0,11 WOODLANDS CIRCLE ADMIRALTY PRIMARY SCHOOL SINGAPORE 738907,11,ADMIRALTY PRIMARY SCHOOL,1.4426796169999998,103.80011440000001,103.80011440000001,738907,WOODLANDS CIRCLE,ADMIRALTY PRIMARY SCHOOL,24304.88601,47149.72662,Admiralty Primary School
0,9 FAJAR ROAD ZHENGHUA PRIMARY SCHOOL SINGAPORE 679002,9,ZHENGHUA PRIMARY SCHOOL,1.3798023609999999,103.7691708,103.7691708,679002,FAJAR ROAD,ZHENGHUA PRIMARY SCHOOL,20861.15681,40197.14655,Zhenghua Primary School
0,5 WOODLANDS STREET 81 QIHUA PRIMARY SCHOOL SINGAPORE 738525,5,QIHUA PRIMARY SCHOOL,1.442035966,103.78833979999999,103.78833979999999,738525,WOODLANDS STREET 81,QIHUA PRIMARY SCHOOL,22994.55515,47078.57746,Qihua Primary School
0,4 GEYLANG EAST CENTRAL GEYLANG METHODIST SCHOOL (PRIMARY) SINGAPORE 389706,4,GEYLANG METHODIST SCHOOL (PRIMARY),1.31759275,103.883893,103.883893,389706,GEYLANG EAST CENTRAL,GEYLANG METHODIST SCHOOL (PRIMARY),33628.43969,33318.286360000006,Geylang Methodist School (Primary)
0,23 WOODLANDS AVENUE 1 FUCHUN PRIMARY SCHOOL SINGAPORE 739063,23,FUCHUN PRIMARY SCHOOL,1.430639768,103.77817519999999,103.77817519999999,739063,WOODLANDS AVENUE 1,FUCHUN PRIMARY SCHOOL,21863.3661,45818.46742,Fuchun Primary School
0,11 PASIR RIS STREET 52 ELIAS PARK PRIMARY SCHOOL SINGAPORE 518866,11,ELIAS PARK PRIMARY SCHOOL,1.375033032,103.9453578,103.9453578,518866,PASIR RIS STREET 52,ELIAS PARK PRIMARY SCHOOL,40468.58607,39669.97456,Elias Park Primary School
0,320 JURONG EAST STREET 32 JURONG PRIMARY SCHOOL SINGAPORE 609476,320,JURONG PRIMARY SCHOOL,1.348684512,103.73297480000001,103.73297480000001,609476,JURONG EAST STREET 32,JURONG PRIMARY SCHOOL,16832.84773,36756.42723,Jurong Primary School
0,9 HOUGANG AVENUE 8 XINMIN PRIMARY SCHOOL SINGAPORE 538784,9,XINMIN PRIMARY SCHOOL,1.371414726,103.88303909999999,103.88303909999999,538784,HOUGANG AVENUE 8,XINMIN PRIMARY SCHOOL,33533.29383,39269.64563,Xinmin Primary School
0,500 YISHUN RING ROAD YISHUN PRIMARY SCHOOL SINGAPORE 768679,500,YISHUN PRIMARY SCHOOL,1.433496399,103.83402740000001,103.83402740000001,768679,YISHUN RING ROAD,YISHUN PRIMARY SCHOOL,28078.88231,46134.26561,Yishun Primary School
0,500 YISHUN RING ROAD YISHUN PRIMARY SCHOOL SINGAPORE 768679,500,YISHUN PRIMARY SCHOOL,1.433496399,103.83402740000001,103.83402740000001,768679,YISHUN RING ROAD,YISHUN PRIMARY SCHOOL,28078.88231,46134.26561,Paya Lebar Methodist Girls' School (Primary)
0,10 ADMIRALTY LINK ENDEAVOUR PRIMARY SCHOOL SINGAPORE 757521,10,ENDEAVOUR PRIMARY SCHOOL,1.45417629,103.81742729999999,103.81742729999999,757521,ADMIRALTY LINK,ENDEAVOUR PRIMARY SCHOOL,26231.55903,48420.95031,Endeavour Primary School
0,10 CHOA CHU KANG STREET 64 YEW TEE PRIMARY SCHOOL SINGAPORE 689100,10,YEW TEE PRIMARY SCHOOL,1.396961392,103.7511946,103.7511946,689100,CHOA CHU KANG STREET 64,YEW TEE PRIMARY SCHOOL,18860.69686,42094.568569999996,Yew Tee Primary School
0,1 HOLLAND GROVE ROAD HENRY PARK PRIMARY SCHOOL SINGAPORE 278790,1,HENRY PARK PRIMARY SCHOOL,1.316725811,103.7842083,103.7842083,278790,HOLLAND GROVE ROAD,HENRY PARK PRIMARY SCHOOL,22534.50219,33222.42145,Henry Park Primary School
0,50 WEST COAST AVENUE QIFA PRIMARY SCHOOL SINGAPORE 128104,50,QIFA PRIMARY SCHOOL,1.312621542,103.75703,103.75703,128104,WEST COAST AVENUE,QIFA PRIMARY SCHOOL,19509.80984,32768.66823,Qifa Primary School
0,41 EDGEFIELD PLAINS EDGEFIELD PRIMARY SCHOOL SINGAPORE 828869,41,EDGEFIELD PRIMARY SCHOOL,1.400297835,103.9074305,103.9074305,828869,EDGEFIELD PLAINS,EDGEFIELD PRIMARY SCHOOL,36247.65881,42463.46613,Edgefield Primary School
0,21 YISHUN AVENUE 11 HUAMIN PRIMARY SCHOOL SINGAPORE 768857,21,HUAMIN PRIMARY SCHOOL,1.4269977459999998,103.84420970000001,103.84420970000001,768857,YISHUN AVENUE 11,HUAMIN PRIMARY SCHOOL,29212.017460000003,45415.68007,Huamin Primary School
0,20 ANG MO KIO AVENUE 3 ANG MO KIO PRIMARY SCHOOL SINGAPORE 569920,20,ANG MO KIO PRIMARY SCHOOL,1.369092065,103.83904140000001,103.83904140000001,569920,ANG MO KIO AVENUE 3,ANG MO KIO PRIMARY SCHOOL,28636.875939999998,39012.76095,Ang Mo Kio Primary School
0,1 FERNVALE LANE FERNVALE PRIMARY SCHOOL SINGAPORE 797701,1,FERNVALE PRIMARY SCHOOL,1.389979408,103.874101,103.874101,797701,FERNVALE LANE,FERNVALE PRIMARY SCHOOL,32538.549260000003,41322.41557,Fernvale Primary School
0,1 TAMPINES STREET 42 GONGSHANG PRIMARY SCHOOL SINGAPORE 529176,1,GONGSHANG PRIMARY SCHOOL,1.357348982,103.9488719,103.9488719,529176,TAMPINES STREET 42,GONGSHANG PRIMARY SCHOOL,40859.76317,37714.57697,Gongshang Primary School
0,1 BEDOK SOUTH AVENUE 2 BEDOK GREEN PRIMARY SCHOOL SINGAPORE 469317,1,BEDOK GREEN PRIMARY SCHOOL,1.323996276,103.93774499999999,103.93774499999999,469317,BEDOK SOUTH AVENUE 2,BEDOK GREEN PRIMARY SCHOOL,39621.62221,34026.54301,Bedok Green Primary School
0,307 BEDOK NORTH ROAD FENGSHAN PRIMARY SCHOOL SINGAPORE 469680,307,FENGSHAN PRIMARY SCHOOL,1.330324955,103.9318854,103.9318854,469680,BEDOK NORTH ROAD,FENGSHAN PRIMARY SCHOOL,38969.473439999994,34726.31016,Fengshan Primary School
0,31 WOODLANDS CENTRE ROAD MARSILING PRIMARY SCHOOL SINGAPORE 738927,31,MARSILING PRIMARY SCHOOL,1.434423117,103.77369770000001,103.77369770000001,738927,WOODLANDS CENTRE ROAD,MARSILING PRIMARY SCHOOL,21365.10125,46236.8238,Marsiling Primary School
0,80 WOODLANDS DRIVE 17 INNOVA PRIMARY SCHOOL SINGAPORE 737888,80,INNOVA PRIMARY SCHOOL,1.429184592,103.7905571,103.7905571,737888,WOODLANDS DRIVE 17,INNOVA PRIMARY SCHOOL,23241.279619999998,45657.53195,Innova Primary School
0,5 LORONG LOW KOON HOLY INNOCENTS' PRIMARY SCHOOL SINGAPORE 536451,5,HOLY INNOCENTS' PRIMARY SCHOOL,1.366737841,103.89368409999999,103.89368409999999,536451,LORONG LOW KOON,HOLY INNOCENTS' PRIMARY SCHOOL,34717.96673,38752.52651,Holy Innocents' Primary School
0,30 JURONG WEST STREET 61 JURONG WEST PRIMARY SCHOOL SINGAPORE 648368,30,JURONG WEST PRIMARY SCHOOL,1.3392437529999999,103.6988958,103.6988958,648368,JURONG WEST STREET 61,JURONG WEST PRIMARY SCHOOL,13040.16928,35712.696469999995,Jurong West Primary School
0,61 HOUGANG AVENUE 8 PUNGGOL PRIMARY SCHOOL SINGAPORE 538787,61,PUNGGOL PRIMARY SCHOOL,1.3782006230000001,103.89475329999999,103.89475329999999,538787,HOUGANG AVENUE 8,PUNGGOL PRIMARY SCHOOL,34836.92284,40020.02636,Punggol Primary School
0,350 GUILLEMARD ROAD KONG HWA SCHOOL SINGAPORE 399772,350,KONG HWA SCHOOL,1.311114219,103.88820940000001,103.88820940000001,399772,GUILLEMARD ROAD,KONG HWA SCHOOL,34108.83146,32601.933589999997,Kong Hwa School
0,12 SERANGOON AVENUE 4 ZHONGHUA PRIMARY SCHOOL SINGAPORE 556095,12,ZHONGHUA PRIMARY SCHOOL,1.360166735,103.8696959,103.8696959,556095,SERANGOON AVENUE 4,ZHONGHUA PRIMARY SCHOOL,32048.373030000002,38025.87319,Zhonghua Primary School
0,80 RIVERVALE DRIVE RIVERVALE PRIMARY SCHOOL SINGAPORE 545092,80,RIVERVALE PRIMARY SCHOOL,1.393573805,103.9047183,103.9047183,545092,RIVERVALE DRIVE,RIVERVALE PRIMARY SCHOOL,35945.84582,41719.94703,Rivervale Primary School
0,95 JALAN EUNOS EUNOS PRIMARY SCHOOL SINGAPORE 419529,95,EUNOS PRIMARY SCHOOL,1.324388358,103.9043748,103.9043748,419529,JALAN EUNOS,EUNOS PRIMARY SCHOOL,35907.84409,34069.76606,Eunos Primary School
0,9 BISHAN STREET 22 COMMIT LEARNING SCHOOLHOUSE @ CATHOLIC HIGH SCHOOL (PRIMARY) SINGAPORE 579767,9,COMMIT LEARNING SCHOOLHOUSE @ CATHOLIC HIGH SCHOOL (PRIMARY),1.354388784,103.8442107,103.8442107,579767,BISHAN STREET 22,COMMIT LEARNING SCHOOLHOUSE @ CATHOLIC HIGH SCHOOL (PRIMARY),29212.16565,37386.94902,Catholic High School (Primary)
0,6 BISHAN STREET 12 GUANGYANG PRIMARY SCHOOL SINGAPORE 579806,6,GUANGYANG PRIMARY SCHOOL,1.346042665,103.8492848,103.8492848,579806,BISHAN STREET 12,GUANGYANG PRIMARY SCHOOL,29776.85995,36464.08089,Guangyang Primary School
0,30 TAMPINES AVENUE 9 TAMPINES NORTH PRIMARY SCHOOL SINGAPORE 529565,30,TAMPINES NORTH PRIMARY SCHOOL,1.36069172,103.9489368,103.9489368,529565,TAMPINES AVENUE 9,TAMPINES NORTH PRIMARY SCHOOL,40866.96501,38084.20102,Tampines North Primary School
0,56 BEDOK NORTH STREET 3 YU NENG PRIMARY SCHOOL SINGAPORE 469623,56,YU NENG PRIMARY SCHOOL,1.3339038090000002,103.9320341,103.9320341,469623,BEDOK NORTH STREET 3,YU NENG PRIMARY SCHOOL,38986.00375,35122.04274,Yu Neng Primary School
0,11 SIMEI STREET 3 CHANGKAT PRIMARY SCHOOL SINGAPORE 529896,11,CHANGKAT PRIMARY SCHOOL,1.340208008,103.95218340000001,103.95218340000001,529896,SIMEI STREET 3,CHANGKAT PRIMARY SCHOOL,41228.38556,35819.22945,Changkat Primary School
0,651 YISHUN RING ROAD PEIYING PRIMARY SCHOOL SINGAPORE 768687,651,PEIYING PRIMARY SCHOOL,1.417408192,103.8302995,103.8302995,768687,YISHUN RING ROAD,PEIYING PRIMARY SCHOOL,27664.016310000003,44355.312939999996,Peiying Primary School
0,10 SEMBAWANG DRIVE SEMBAWANG PRIMARY SCHOOL SINGAPORE 757715,10,SEMBAWANG PRIMARY SCHOOL,1.445043645,103.8210215,103.8210215,757715,SEMBAWANG DRIVE,SEMBAWANG PRIMARY SCHOOL,26631.52853,47411.10568,Sembawang Primary School
0,5 PASIR RIS STREET 21 PASIR RIS PRIMARY SCHOOL SINGAPORE 518968,5,PASIR RIS PRIMARY SCHOOL,1.372308619,103.9629189,103.9629189,518968,PASIR RIS STREET 21,PASIR RIS PRIMARY SCHOOL,42422.9406,39368.82092,Pasir Ris Primary School
0,50 BARKER ROAD ANGLO-CHINESE SCHOOL (PRIMARY) SINGAPORE 309918,50,ANGLO-CHINESE SCHOOL (PRIMARY),1.318718599,103.8353452,103.8353452,309918,BARKER ROAD,ANGLO-CHINESE SCHOOL (PRIMARY),28225.53949,33442.71998,Anglo-Chinese School (Primary)
0,7 YISHUN AVENUE 4 NAVAL BASE PRIMARY SCHOOL SINGAPORE 769028,7,NAVAL BASE PRIMARY SCHOOL,1.4162801530000002,103.8387977,103.8387977,769028,YISHUN AVENUE 4,NAVAL BASE PRIMARY SCHOOL,28609.74645,44230.58057,Naval Base Primary School
0,20 COMPASSVALE LINK NORTH VISTA PRIMARY SCHOOL SINGAPORE 544974,20,NORTH VISTA PRIMARY SCHOOL,1.382893394,103.8958542,103.8958542,544974,COMPASSVALE LINK,NORTH VISTA PRIMARY SCHOOL,34959.41559,40538.93259,North Vista Primary School
0,49 MARINE CRESCENT TAO NAN SCHOOL SINGAPORE 449761,49,TAO NAN SCHOOL,1.3046315290000001,103.9112042,103.9112042,449761,MARINE CRESCENT,TAO NAN SCHOOL,36667.96139,31885.178239999997,Tao Nan School
0,5 JURONG WEST STREET 91 XINGNAN PRIMARY SCHOOL SINGAPORE 649036,5,XINGNAN PRIMARY SCHOOL,1.3426848759999999,103.687724,103.687724,649036,JURONG WEST STREET 91,XINGNAN PRIMARY SCHOOL,11796.88672,36093.27051,Xingnan Primary School
0,31 JURONG WEST STREET 24 CORPORATION PRIMARY SCHOOL SINGAPORE 648347,31,CORPORATION PRIMARY SCHOOL,1.35148549,103.70757840000002,103.70757840000002,648347,JURONG WEST STREET 24,CORPORATION PRIMARY SCHOOL,14006.523480000002,37066.27719,Corporation Primary School
0,30 JALAN LEMPENG NAN HUA PRIMARY SCHOOL SINGAPORE 128806,30,NAN HUA PRIMARY SCHOOL,1.319836638,103.761404,103.761404,128806,JALAN LEMPENG,NAN HUA PRIMARY SCHOOL,19996.608519999998,33566.46264,Nan Hua Primary School
0,52 BEDOK RESERVOIR CRESCENT DAMAI PRIMARY SCHOOL SINGAPORE 479226,52,DAMAI PRIMARY SCHOOL,1.335351315,103.9212683,103.9212683,479226,BEDOK RESERVOIR CRESCENT,DAMAI PRIMARY SCHOOL,37787.88342,35282.05534,Damai Primary School
0,7 LORONG 8 TOA PAYOH FIRST TOA PAYOH PRIMARY SCHOOL SINGAPORE 319252,7,FIRST TOA PAYOH PRIMARY SCHOOL,1.340526165,103.85566750000001,103.85566750000001,319252,LORONG 8 TOA PAYOH,FIRST TOA PAYOH PRIMARY SCHOOL,30487.198080000002,35854.100080000004,First Toa Payoh Primary School
0,1 JURONG WEST STREET 72 WEST GROVE PRIMARY SCHOOL SINGAPORE 649223,1,WEST GROVE PRIMARY SCHOOL,1.3447121219999998,103.6989642,103.6989642,649223,JURONG WEST STREET 72,WEST GROVE PRIMARY SCHOOL,13047.81709,36317.36195,West Grove Primary School
0,2 TAMPINES STREET 91 JUNYUAN PRIMARY SCHOOL SINGAPORE 528906,2,JUNYUAN PRIMARY SCHOOL,1.347891544,103.9396469,103.9396469,528906,TAMPINES STREET 91,JUNYUAN PRIMARY SCHOOL,39833.1636,36668.77297,Junyuan Primary School
0,35 BUKIT BATOK STREET 31 DAZHONG PRIMARY SCHOOL SINGAPORE 659441,35,DAZHONG PRIMARY SCHOOL,1.3590589919999998,103.7481615,103.7481615,659441,BUKIT BATOK STREET 31,DAZHONG PRIMARY SCHOOL,18523.0002,37903.52122,Dazhong Primary School
0,200 ANG MO KIO AVENUE 5 SHG STUDENT CARE (MAYFLOWER PRIMARY SCHOOL) SINGAPORE 569878,200,SHG STUDENT CARE (MAYFLOWER PRIMARY SCHOOL),1.376398733,103.8431658,103.8431658,569878,ANG MO KIO AVENUE 5,SHG STUDENT CARE (MAYFLOWER PRIMARY SCHOOL),29095.8687,39820.69661,Mayflower Primary School
1,200 ANG MO KIO AVENUE 5 MAYFLOWER PRIMARY SCHOOL (U/C) SINGAPORE 569878,200,MAYFLOWER PRIMARY SCHOOL (U/C),1.376398737,103.8431658,103.8431658,569878,ANG MO KIO AVENUE 5,MAYFLOWER PRIMARY SCHOOL (U/C),29095.868730000002,39820.69713,Mayflower Primary School
2,6 ANG MO KIO AVENUE 2 MAYFLOWER PRIMARY SCHOOL (JAN 2019 - JAN 2021) SINGAPORE 569948,6,MAYFLOWER PRIMARY SCHOOL (JAN 2019 - JAN 2021),1.3760681559999999,103.8357467,103.8357467,569948,ANG MO KIO AVENUE 2,MAYFLOWER PRIMARY SCHOOL (JAN 2019 - JAN 2021),28270.223360000004,39784.14097,Mayflower Primary School
0,15 LORONG 3 TOA PAYOH KHENG CHENG SCHOOL SINGAPORE 319580,15,KHENG CHENG SCHOOL,1.337407636,103.84776109999999,103.84776109999999,319580,LORONG 3 TOA PAYOH,KHENG CHENG SCHOOL,29607.302460000003,35509.26245,Kheng Cheng School
0,300 TANGLIN HALT ROAD NEW TOWN PRIMARY SCHOOL SINGAPORE 148812,300,NEW TOWN PRIMARY SCHOOL,1.299811388,103.7999648,103.7999648,148812,TANGLIN HALT ROAD,NEW TOWN PRIMARY SCHOOL,24288.02429,31352.082280000002,New Town Primary School
0,31 TAMPINES STREET 33 EAST SPRING PRIMARY SCHOOL SINGAPORE 529258,31,EAST SPRING PRIMARY SCHOOL,1.353041046,103.96179709999998,103.96179709999998,529258,TAMPINES STREET 33,EAST SPRING PRIMARY SCHOOL,42298.21968,37238.2988,East Spring Primary School
0,36 BUKIT PANJANG RING ROAD BEACON PRIMARY SCHOOL SINGAPORE 679944,36,BEACON PRIMARY SCHOOL,1.3842366769999999,103.77375440000002,103.77375440000002,679944,BUKIT PANJANG RING ROAD,BEACON PRIMARY SCHOOL,21371.26199,40687.45768,Beacon Primary School
0,1 HOUGANG STREET 51 YIO CHU KANG PRIMARY SCHOOL SINGAPORE 538720,1,YIO CHU KANG PRIMARY SCHOOL,1.3778227090000001,103.88556870000001,103.88556870000001,538720,HOUGANG STREET 51,YIO CHU KANG PRIMARY SCHOOL,33814.788889999996,39978.21417,Yio Chu Kang Primary School
0,1 HOUGANG STREET 51 YIO CHU KANG PRIMARY SCHOOL SINGAPORE 538720,1,YIO CHU KANG PRIMARY SCHOOL,1.3778227090000001,103.88556870000001,103.88556870000001,538720,HOUGANG STREET 51,YIO CHU KANG PRIMARY SCHOOL,33814.788889999996,39978.21417,Methodist Girls' School (Primary)
0,30 PASIR RIS STREET 41 CASUARINA PRIMARY SCHOOL SINGAPORE 518935,30,CASUARINA PRIMARY SCHOOL,1.372789016,103.9572913,103.9572913,518935,PASIR RIS STREET 41,CASUARINA PRIMARY SCHOOL,41796.65352,39421.90779,Casuarina Primary School
0,21 COMPASSVALE STREET COMPASSVALE PRIMARY SCHOOL SINGAPORE 545091,21,COMPASSVALE PRIMARY SCHOOL,1.3945298309999998,103.8978648,103.8978648,545091,COMPASSVALE STREET,COMPASSVALE PRIMARY SCHOOL,35183.13646,41825.63765,Compassvale Primary School
0,51 KOON SENG ROAD HAIG GIRLS' SCHOOL SINGAPORE 427072,51,HAIG GIRLS' SCHOOL,1.3117720590000002,103.90265550000001,103.90265550000001,427072,KOON SENG ROAD,HAIG GIRLS' SCHOOL,35716.542689999995,32674.71402,Haig Girls' School
0,10 WELLINGTON CIRCLE WELLINGTON PRIMARY SCHOOL SINGAPORE 757702,10,WELLINGTON PRIMARY SCHOOL,1.451933871,103.82232059999998,103.82232059999998,757702,WELLINGTON CIRCLE,WELLINGTON PRIMARY SCHOOL,26776.09949,48172.9916,Wellington Primary School
0,91 TELOK BLANGAH HEIGHTS BLANGAH RISE PRIMARY SCHOOL SINGAPORE 109100,91,BLANGAH RISE PRIMARY SCHOOL,1.276130304,103.8086392,103.8086392,109100,TELOK BLANGAH HEIGHTS,BLANGAH RISE PRIMARY SCHOOL,25253.38207,28733.53902,Blangah Rise Primary School
0,628 LORONG 1 TOA PAYOH CHIJ PRIMARY (TOA PAYOH) SINGAPORE 319765,628,CHIJ PRIMARY (TOA PAYOH),1.332818153,103.8419184,103.8419184,319765,LORONG 1 TOA PAYOH,CHIJ PRIMARY (TOA PAYOH),28957.067810000004,35001.7779,CHIJ Primary (Toa Payoh)
0,21 EDGEDALE PLAINS MEE TOH SCHOOL SINGAPORE 828867,21,MEE TOH SCHOOL,1.394853563,103.90857259999999,103.90857259999999,828867,EDGEDALE PLAINS,MEE TOH SCHOOL,36374.77281,41861.46965,Mee Toh School
0,21 COMPASSVALE WALK SENG KANG PRIMARY SCHOOL SINGAPORE 545166,21,SENG KANG PRIMARY SCHOOL,1.389250457,103.89952790000001,103.89952790000001,545166,COMPASSVALE WALK,SENG KANG PRIMARY SCHOOL,35368.234619999996,41241.87588,Seng Kang Primary School
0,100 DOVER ROAD FAIRFIELD METHODIST SCHOOL (PRIMARY) SINGAPORE 139648,100,FAIRFIELD METHODIST SCHOOL (PRIMARY),1.300798691,103.7856922,103.7856922,139648,DOVER ROAD,FAIRFIELD METHODIST SCHOOL (PRIMARY),22699.613709999998,31461.2787,Fairfield Methodist School (Primary)
0,1 ANG MO KIO STREET 32 TECK GHEE PRIMARY SCHOOL SINGAPORE 569299,1,TECK GHEE PRIMARY SCHOOL,1.365200631,103.8510322,103.8510322,569299,ANG MO KIO STREET 32,TECK GHEE PRIMARY SCHOOL,29971.311230000003,38582.47251,Teck Ghee Primary School
0,1 RIVERVALE STREET NORTH SPRING PRIMARY SCHOOL SINGAPORE 545088,1,NORTH SPRING PRIMARY SCHOOL,1.3875282359999999,103.903513,103.903513,545088,RIVERVALE STREET,NORTH SPRING PRIMARY SCHOOL,35811.72847,41051.45415,North Spring Primary School
0,15 FERNVALE ROAD SENGKANG GREEN PRIMARY SCHOOL SINGAPORE 797636,15,SENGKANG GREEN PRIMARY SCHOOL,1.3928392509999998,103.8751588,103.8751588,797636,FERNVALE ROAD,SENGKANG GREEN PRIMARY SCHOOL,32656.2685,41638.64471,Sengkang Green Primary School
0,12 UBI AVENUE 1 MAHA BODHI SCHOOL SINGAPORE 408932,12,MAHA BODHI SCHOOL,1.328470866,103.90129870000001,103.90129870000001,408932,UBI AVENUE 1,MAHA BODHI SCHOOL,35565.497910000006,34521.17959,Maha Bodhi School
1,10 UBI AVENUE 1 MAHA BODHI SCHOOL SINGAPORE 408931,10,MAHA BODHI SCHOOL,1.328407723,103.9015276,103.9015276,408931,UBI AVENUE 1,MAHA BODHI SCHOOL,35590.97369,34514.19822,Maha Bodhi School
0,1 TAMPINES STREET 21 CHONGZHENG PRIMARY SCHOOL SINGAPORE 529392,1,CHONGZHENG PRIMARY SCHOOL,1.350594769,103.9512252,103.9512252,529392,TAMPINES STREET 21,CHONGZHENG PRIMARY SCHOOL,41121.69779,36967.74168,Chongzheng Primary School
0,1 HOUGANG STREET 93 HOUGANG PRIMARY SCHOOL SINGAPORE 534238,1,HOUGANG PRIMARY SCHOOL,1.378039861,103.8811662,103.8811662,534238,HOUGANG STREET 93,HOUGANG PRIMARY SCHOOL,33324.84876,40002.215410000004,Hougang Primary School
0,2 PASIR RIS STREET 11 WHITE SANDS PRIMARY SCHOOL SINGAPORE 519075,2,WHITE SANDS PRIMARY SCHOOL,1.365517813,103.9609482,103.9609482,519075,PASIR RIS STREET 11,WHITE SANDS PRIMARY SCHOOL,42203.67018,38617.91453,White Sands Primary School
0,48 FIDELIO STREET OPERA ESTATE PRIMARY SCHOOL SINGAPORE 458436,48,OPERA ESTATE PRIMARY SCHOOL,1.319968755,103.9237527,103.9237527,458436,FIDELIO STREET,OPERA ESTATE PRIMARY SCHOOL,38064.42658,33581.13861,Opera Estate Primary School
0,21 CHOA CHU KANG CRESCENT UNITY PRIMARY SCHOOL SINGAPORE 688268,21,UNITY PRIMARY SCHOOL,1.40282339,103.7469934,103.7469934,688268,CHOA CHU KANG CRESCENT,UNITY PRIMARY SCHOOL,18393.184540000002,42742.77615,Unity Primary School
0,15 SERANGOON AVENUE 3 YANGZHENG PRIMARY SCHOOL SINGAPORE 556108,15,YANGZHENG PRIMARY SCHOOL,1.348972024,103.8683625,103.8683625,556108,SERANGOON AVENUE 3,YANGZHENG PRIMARY SCHOOL,31900.0002,36788.01675,Yangzheng Primary School
0,49 PUNGGOL CENTRAL VALOUR PRIMARY SCHOOL SINGAPORE 828728,49,VALOUR PRIMARY SCHOOL,1.406871355,103.8989109,103.8989109,828728,PUNGGOL CENTRAL,VALOUR PRIMARY SCHOOL,35299.51912,43190.30493,Valour Primary School
0,31 WOODLANDS CIRCLE EVERGREEN PRIMARY SCHOOL SINGAPORE 738908,31,EVERGREEN PRIMARY SCHOOL,1.4441483590000002,103.7945453,103.7945453,738908,WOODLANDS CIRCLE,EVERGREEN PRIMARY SCHOOL,23685.1389,47312.142660000005,Evergreen Primary School
0,6 CHOA CHU KANG CENTRAL SOUTH VIEW PRIMARY SCHOOL SINGAPORE 689762,6,SOUTH VIEW PRIMARY SCHOOL,1.381766725,103.74728979999999,103.74728979999999,689762,CHOA CHU KANG CENTRAL,SOUTH VIEW PRIMARY SCHOOL,18426.08091,40414.43299,South View Primary School
0,15 CEDAR AVENUE CEDAR PRIMARY SCHOOL SINGAPORE 349700,15,CEDAR PRIMARY SCHOOL,1.3356412229999999,103.8754913,103.8754913,349700,CEDAR AVENUE,CEDAR PRIMARY SCHOOL,32693.376930000002,35313.97711,Cedar Primary School
0,344 MARINE TERRACE NGEE ANN PRIMARY SCHOOL SINGAPORE 449149,344,NGEE ANN PRIMARY SCHOOL,1.305540153,103.9177554,103.9177554,449149,MARINE TERRACE,NGEE ANN PRIMARY SCHOOL,37397.046989999995,31985.67278,Ngee Ann Primary School
0,31 JURONG WEST STREET 91 JUYING PRIMARY SCHOOL SINGAPORE 649037,31,JUYING PRIMARY SCHOOL,1.338951451,103.68783309999999,103.68783309999999,649037,JURONG WEST STREET 91,JUYING PRIMARY SCHOOL,11809.00412,35680.445360000005,Juying Primary School
0,7 PEI WAH AVENUE PEI HWA PRESBYTERIAN PRIMARY SCHOOL SINGAPORE 597610,7,PEI HWA PRESBYTERIAN PRIMARY SCHOOL,1.338067044,103.77619150000001,103.77619150000001,597610,PEI WAH AVENUE,PEI HWA PRESBYTERIAN PRIMARY SCHOOL,21642.35943,35582.24579,Pei Hwa Presbyterian Primary School
0,6 JURONG WEST STREET 52 RULANG PRIMARY SCHOOL SINGAPORE 649295,6,RULANG PRIMARY SCHOOL,1.346844456,103.7190098,103.7190098,649295,JURONG WEST STREET 52,RULANG PRIMARY SCHOOL,15278.69116,36553.03144,Rulang Primary School
0,11 WOODLANDS DRIVE 62 GREENWOOD PRIMARY SCHOOL SINGAPORE 737942,11,GREENWOOD PRIMARY SCHOOL,1.4401104980000001,103.80462929999999,103.80462929999999,737942,WOODLANDS DRIVE 62,GREENWOOD PRIMARY SCHOOL,24807.32552,46865.63947,Greenwood Primary School
0,71 EDGEFIELD PLAINS OASIS PRIMARY SCHOOL SINGAPORE 828716,71,OASIS PRIMARY SCHOOL,1.40440927,103.9109964,103.9109964,828716,EDGEFIELD PLAINS,OASIS PRIMARY SCHOOL,36644.48197,42918.10105,Oasis Primary School
0,16 LORONG 7 TOA PAYOH PEI CHUN PUBLIC SCHOOL SINGAPORE 319320,16,PEI CHUN PUBLIC SCHOOL,1.337288933,103.8554735,103.8554735,319320,LORONG 7 TOA PAYOH,PEI CHUN PUBLIC SCHOOL,30465.60702,35496.143339999995,Pei Chun Public School
